{"type": "FeatureCollection", "features": [ {"type": "Feature", "properties": {"norad_id": 44542, "name": "BEIDOU-3 M24 (C46)", "group": "gnss", "lat": -4.71780286640944, "lon": -174.0802223056984, "alt_km": 21505.884533772798, "timestamp": "2025-12-04T07:39:36.383407+00:00", "meta": {"OBJECT_NAME": "BEIDOU-3 M24 (C46)", "OBJECT_ID": "2019-061A", "EPOCH": "2025-12-03T06:05:38.085792", "MEAN_MOTION": 1.86229268, "ECCENTRICITY": 0.00095702, "INCLINATION": 54.4002, "RA_OF_ASC_NODE": 189.3364, "ARG_OF_PERICENTER": 23.8739, "MEAN_ANOMALY": 336.2665, "EPHEMERIS_TYPE": 0, "CLASSIFICATION_TYPE": "U", "NORAD_CAT_ID": 44542, "ELEMENT_SET_NO": 999, "REV_AT_EPOCH": 4214, "BSTAR": 0, "MEAN_MOTION_DOT": 1.17e-06, "MEAN_MOTION_DDOT": 0}, "tle": {"line1": "1 44542U 19061A   25337.25391303  .00000117  00000+0  00000+0 0  9999", "line2": "2 44542  54.4002 189.3364 0009570  23.8739 336.2665  1.86229268 42149"}}, "geometry": {"type": "Point", "coordinates": [-174.0802223056984, -4.71780286640944]}}, {"type": "Feature", "properties": {"norad_id": 44543, "name": "BEIDOU-3 M23 (C45)", "group": "gnss", "lat": -54.27092565504238, "lon": 94.18031831499233, "alt_km": 21541.7499250639, "timestamp": "2025-12-04T07:39:36.383417+00:00", "meta": {"OBJECT_NAME": "BEIDOU-3 M23 (C45)", "OBJECT_ID": "2019-061B", "EPOCH": "2025-12-03T15:47:05.540064", "MEAN_MOTION": 1.86227423, "ECCENTRICITY": 0.00061277, "INCLINATION": 54.3989, "RA_OF_ASC_NODE": 189.2914, "ARG_OF_PERICENTER": 23.0317, "MEAN_ANOMALY": 160.6482, "EPHEMERIS_TYPE": 0, "CLASSIFICATION_TYPE": "U", "NORAD_CAT_ID": 44543, "ELEMENT_SET_NO": 999, "REV_AT_EPOCH": 4215, "BSTAR": 0, "MEAN_MOTION_DOT": 1.14e-06, "MEAN_MOTION_DDOT": 0}, "tle": {"line1": "1 44543U 19061B   25337.65770301  .00000114  00000+0  00000+0 0  9990", "line2": "2 44543  54.3989 189.2914 0006127  23.0317 160.6482  1.86227423 42150"}}, "geometry": {"type": "Point", "coordinates": [94.18031831499233, -54.27092565504238]}}, {"type": "Feature", "properties": {"norad_id": 44624, "name": "EUTELSAT 5 WEST B (EGNOS/PRN 121)", "group": "gnss", "lat": -0.05674484485060525, "lon": -176.74608751466843, "alt_km": 35780.609171751756, "timestamp": "2025-12-04T07:39:36.383427+00:00", "meta": {"OBJECT_NAME": "EUTELSAT 5 WEST B (EGNOS/PRN 121)", "OBJECT_ID": "2019-067A", "EPOCH": "2025-12-03T17:09:26.694720", "MEAN_MOTION": 1.00272793, "ECCENTRICITY": 0.00037115, "INCLINATION": 0.0708, "RA_OF_ASC_NODE": 328.8657, "ARG_OF_PERICENTER": 285.1903, "MEAN_ANOMALY": 71.1223, "EPHEMERIS_TYPE": 0, "CLASSIFICATION_TYPE": "U", "NORAD_CAT_ID": 44624, "ELEMENT_SET_NO": 999, "REV_AT_EPOCH": 2247, "BSTAR": 0, "MEAN_MOTION_DOT": -2.4e-07, "MEAN_MOTION_DDOT": 0}, "tle": {"line1": "1 44624U 19067A   25337.71489230 -.00000024  00000+0  00000+0 0  9992", "line2": "2 44624   0.0708 328.8657 0003711 285.1903  71.1223  1.00272793 22478"}}, "geometry": {"type": "Point", "coordinates": [-176.74608751466843, -0.05674484485060525]}}, {"type": "Feature", "properties": {"norad_id": 44709, "name": "BEIDOU-3 IGSO-3 (C40)", "group": "gnss", "lat": 15.866342136211927, "lon": -65.63204357735495, "alt_km": 35978.10096998606, "timestamp": "2025-12-04T07:39:36.383439+00:00", "meta": {"OBJECT_NAME": "BEIDOU-3 IGSO-3 (C40)", "OBJECT_ID": "2019-073A", "EPOCH": "2025-11-20T07:11:22.740000", "MEAN_MOTION": 1.00250097, "ECCENTRICITY": 0.0044538, "INCLINATION": 55.163, "RA_OF_ASC_NODE": 283.159, "ARG_OF_PERICENTER": 191.5856, "MEAN_ANOMALY": 168.2409, "EPHEMERIS_TYPE": 0, "CLASSIFICATION_TYPE": "U", "NORAD_CAT_ID": 44709, "ELEMENT_SET_NO": 999, "REV_AT_EPOCH": 2236, "BSTAR": 0, "MEAN_MOTION_DOT": -2.06e-06, "MEAN_MOTION_DDOT": 0}, "tle": {"line1": "1 44709U 19073A   25324.29956875 -.00000206  00000+0  00000+0 0  9998", "line2": "2 44709  55.1630 283.1590 0044538 191.5856 168.2409  1.00250097 22360"}}, "geometry": {"type": "Point", "coordinates": [-65.63204357735495, 15.866342136211927]}}, {"type": "Feature", "properties": {"norad_id": 44793, "name": "BEIDOU-3 M22 (C44)", "group": "gnss", "lat": 52.542925780539406, "lon": 55.84940497967542, "alt_km": 21518.755345474154, "timestamp": "2025-12-04T07:39:36.383451+00:00", "meta": {"OBJECT_NAME": "BEIDOU-3 M22 (C44)", "OBJECT_ID": "2019-078A", "EPOCH": "2025-12-02T00:28:58.554624", "MEAN_MOTION": 1.86231817, "ECCENTRICITY": 0.00056333, "INCLINATION": 54.1183, "RA_OF_ASC_NODE": 306.7625, "ARG_OF_PERICENTER": 22.616, "MEAN_ANOMALY": 337.398, "EPHEMERIS_TYPE": 0, "CLASSIFICATION_TYPE": "U", "NORAD_CAT_ID": 44793, "ELEMENT_SET_NO": 999, "REV_AT_EPOCH": 4097, "BSTAR": 0, "MEAN_MOTION_DOT": -6.1e-07, "MEAN_MOTION_DDOT": 0}, "tle": {"line1": "1 44793U 19078A   25336.02012216 -.00000061  00000+0  00000+0 0  9991", "line2": "2 44793  54.1183 306.7625 0005633  22.6160 337.3980  1.86231817 40974"}}, "geometry": {"type": "Point", "coordinates": [55.84940497967542, 52.542925780539406]}}, {"type": "Feature", "properties": {"norad_id": 44794, "name": "BEIDOU-3 M21 (C43)", "group": "gnss", "lat": 7.478297309429699, "lon": -47.91998160840724, "alt_km": 21516.88643690248, "timestamp": "2025-12-04T07:39:36.383462+00:00", "meta": {"OBJECT_NAME": "BEIDOU-3 M21 (C43)", "OBJECT_ID": "2019-078B", "EPOCH": "2025-12-01T02:00:26.030304", "MEAN_MOTION": 1.86227539, "ECCENTRICITY": 0.00038706, "INCLINATION": 54.0922, "RA_OF_ASC_NODE": 306.7607, "ARG_OF_PERICENTER": 10.0971, "MEAN_ANOMALY": 349.9036, "EPHEMERIS_TYPE": 0, "CLASSIFICATION_TYPE": "U", "NORAD_CAT_ID": 44794, "ELEMENT_SET_NO": 999, "REV_AT_EPOCH": 4096, "BSTAR": 0, "MEAN_MOTION_DOT": -5.7e-07, "MEAN_MOTION_DDOT": 0}, "tle": {"line1": "1 44794U 19078B   25335.08363461 -.00000057  00000+0  00000+0 0  9993", "line2": "2 44794  54.0922 306.7607 0003870  10.0971 349.9036  1.86227539 40963"}}, "geometry": {"type": "Point", "coordinates": [-47.91998160840724, 7.478297309429699]}}, {"type": "Feature", "properties": {"norad_id": 44850, "name": "COSMOS 2544 (759)", "group": "gnss", "lat": 23.123137634521242, "lon": 91.47520931349233, "alt_km": 19152.815176026234, "timestamp": "2025-12-04T07:39:36.383472+00:00", "meta": {"OBJECT_NAME": "COSMOS 2544 (759)", "OBJECT_ID": "2019-088A", "EPOCH": "2025-12-03T19:35:48.045120", "MEAN_MOTION": 2.13101769, "ECCENTRICITY": 0.00137151, "INCLINATION": 65.4552, "RA_OF_ASC_NODE": 80.257, "ARG_OF_PERICENTER": 248.9953, "MEAN_ANOMALY": 110.8552, "EPHEMERIS_TYPE": 0, "CLASSIFICATION_TYPE": "U", "NORAD_CAT_ID": 44850, "ELEMENT_SET_NO": 999, "REV_AT_EPOCH": 4655, "BSTAR": 0, "MEAN_MOTION_DOT": -2.3e-07, "MEAN_MOTION_DDOT": 0}, "tle": {"line1": "1 44850U 19088A   25337.81652830 -.00000023  00000+0  00000+0 0  9994", "line2": "2 44850  65.4552  80.2570 0013715 248.9953 110.8552  2.13101769 46551"}}, "geometry": {"type": "Point", "coordinates": [91.47520931349233, 23.123137634521242]}}, {"type": "Feature", "properties": {"norad_id": 44864, "name": "BEIDOU-3 M19 (C41)", "group": "gnss", "lat": -20.41835239826185, "lon": -96.4416965204374, "alt_km": 21522.47546987305, "timestamp": "2025-12-04T07:39:36.383482+00:00", "meta": {"OBJECT_NAME": "BEIDOU-3 M19 (C41)", "OBJECT_ID": "2019-090A", "EPOCH": "2025-12-02T22:27:31.551840", "MEAN_MOTION": 1.86231053, "ECCENTRICITY": 0.00175607, "INCLINATION": 56.3847, "RA_OF_ASC_NODE": 69.2872, "ARG_OF_PERICENTER": 284.9296, "MEAN_ANOMALY": 72.494, "EPHEMERIS_TYPE": 0, "CLASSIFICATION_TYPE": "U", "NORAD_CAT_ID": 44864, "ELEMENT_SET_NO": 999, "REV_AT_EPOCH": 4057, "BSTAR": 0, "MEAN_MOTION_DOT": -4.9e-07, "MEAN_MOTION_DDOT": 0}, "tle": {"line1": "1 44864U 19090A   25336.93578185 -.00000049  00000+0  00000+0 0  9992", "line2": "2 44864  56.3847  69.2872 0017560 284.9296  72.4940  1.86231053 40575"}}, "geometry": {"type": "Point", "coordinates": [-96.4416965204374, -20.41835239826185]}}, {"type": "Feature", "properties": {"norad_id": 44865, "name": "BEIDOU-3 M20 (C42)", "group": "gnss", "lat": -49.27598321570037, "lon": 18.795415493628145, "alt_km": 21492.73464393883, "timestamp": "2025-12-04T07:39:36.383496+00:00", "meta": {"OBJECT_NAME": "BEIDOU-3 M20 (C42)", "OBJECT_ID": "2019-090B", "EPOCH": "2025-12-02T19:15:49.919904", "MEAN_MOTION": 1.86231044, "ECCENTRICITY": 0.00146831, "INCLINATION": 56.3861, "RA_OF_ASC_NODE": 69.3259, "ARG_OF_PERICENTER": 297.6742, "MEAN_ANOMALY": 60.1134, "EPHEMERIS_TYPE": 0, "CLASSIFICATION_TYPE": "U", "NORAD_CAT_ID": 44865, "ELEMENT_SET_NO": 999, "REV_AT_EPOCH": 4055, "BSTAR": 0, "MEAN_MOTION_DOT": -4.8e-07, "MEAN_MOTION_DDOT": 0}, "tle": {"line1": "1 44865U 19090B   25336.80266111 -.00000048  00000+0  00000+0 0  9991", "line2": "2 44865  56.3861  69.3259 0014683 297.6742  60.1134  1.86231044 40559"}}, "geometry": {"type": "Point", "coordinates": [18.795415493628145, -49.27598321570037]}}, {"type": "Feature", "properties": {"norad_id": 45344, "name": "BEIDOU-3 G2 (C60)", "group": "gnss", "lat": -2.121132059547077, "lon": -91.7429081275154, "alt_km": 35771.563732830306, "timestamp": "2025-12-04T07:39:36.383506+00:00", "meta": {"OBJECT_NAME": "BEIDOU-3 G2 (C60)", "OBJECT_ID": "2020-017A", "EPOCH": "2025-12-03T17:12:28.052640", "MEAN_MOTION": 1.00270259, "ECCENTRICITY": 0.00046444, "INCLINATION": 2.9833, "RA_OF_ASC_NODE": 43.572, "ARG_OF_PERICENTER": 263.7107, "MEAN_ANOMALY": 103.6888, "EPHEMERIS_TYPE": 0, "CLASSIFICATION_TYPE": "U", "NORAD_CAT_ID": 45344, "ELEMENT_SET_NO": 999, "REV_AT_EPOCH": 2130, "BSTAR": 0, "MEAN_MOTION_DOT": -1.26e-06, "MEAN_MOTION_DDOT": 0}, "tle": {"line1": "1 45344U 20017A   25337.71699135 -.00000126  00000+0  00000+0 0  9999", "line2": "2 45344   2.9833  43.5720 0004644 263.7107 103.6888  1.00270259 21308"}}, "geometry": {"type": "Point", "coordinates": [-91.7429081275154, -2.121132059547077]}}]}